STARLINK-4004           
1 52656U 22053A   22167.08334491 -.00683442  00000+0 -10709-1 0  9992
2 52656  53.2167 156.7467 0001493  52.5126 112.2035 15.55473440  1300
STARLINK-4084           
1 52657U 22053B   22167.08334491 -.00701585  00000+0 -11019-1 0  9997
2 52657  53.2167 156.7284 0001489  51.3369 111.0228 15.55472607  1304
STARLINK-4082           
1 52658U 22053C   22167.08334491 -.00701927  00000+0 -11021-1 0  9991
2 52658  53.2168 156.7367 0001487  52.7826 111.1440 15.55482035  1302
STARLINK-3960           
1 52659U 22053D   22167.08334491 -.00686679  00000+0 -10767-1 0  9994
2 52659  53.2166 156.7352 0001469  53.3798 109.7684 15.55466475  1303
STARLINK-4081           
1 52660U 22053E   22167.08334491 -.00700982  00000+0 -11001-1 0  9992
2 52660  53.2169 156.7559 0001585  49.2642 116.2294 15.55490694  1308
STARLINK-4042           
1 52661U 22053F   22167.08334491 -.00701205  00000+0 -11003-1 0  9994
2 52661  53.2169 156.7650 0001529  54.1459 112.1309 15.55495566  1305
STARLINK-4044           
1 52662U 22053G   22167.08334491 -.00701504  00000+0 -11004-1 0  9998
2 52662  53.2169 156.7844 0001601  48.7239 119.1191 15.55505058  1301
STARLINK-4037           
1 52663U 22053H   22167.08334491 -.00702011  00000+0 -11011-1 0  9991
2 52663  53.2169 156.7936 0001478  54.9493 113.6766 15.55510040  1301
STARLINK-4070           
1 52664U 22053J   22167.08334491 -.00702705  00000+0 -11026-1 0  9998
2 52664  53.2169 156.7748 0001629  45.0964 121.9630 15.55501242  1301
STARLINK-4064           
1 52665U 22053K   22167.08334491 -.00703257  00000+0 -11023-1 0  9999
2 52665  53.2170 156.8193 0001917  35.3618 136.3967 15.55529295  1308
STARLINK-4079           
1 52666U 22053L   22167.08334491 -.00702928  00000+0 -11023-1 0  9994
2 52666  53.2169 156.8028 0001958  32.0686 137.3404 15.55515268  1300
STARLINK-4076           
1 52667U 22053M   22167.08334491 -.00703178  00000+0 -11021-1 0  9991
2 52667  53.2170 156.8287 0001537  51.6862 120.8553 15.55533888  1306
STARLINK-4067           
1 52668U 22053N   22167.08334491 -.00704348  00000+0 -11046-1 0  9999
2 52668  53.2170 156.8117 0001620  46.6594 123.5325 15.55521019  1308
STARLINK-3972           
1 52669U 22053P   22167.08334491 -.00691436  00000+0 -10819-1 0  9990
2 52669  53.2170 156.8567 0001428  52.4673 122.4269 15.55539210  1304
STARLINK-4075           
1 52670U 22053Q   22167.08334491 -.00704518  00000+0 -11047-1 0  9992
2 52670  53.2170 156.8182 0001625  43.9224 127.0527 15.55525593  1302
STARLINK-4071           
1 52671U 22053R   22167.08334491 -.00706939  00000+0 -11077-1 0  9995
2 52671  53.2171 156.8665 0001392  58.5947 117.0768 15.55555014  1302
STARLINK-4073           
1 52672U 22053S   22167.08334491 -.00705616  00000+0 -11060-1 0  9999
2 52672  53.2171 156.8383 0001538  50.0652 123.2583 15.55540273  1307
STARLINK-3976           
1 52673U 22053T   22167.08334491 -.00692130  00000+0 -10825-1 0  9994
2 52673  53.2170 156.8851 0001418  56.0329 121.2089 15.55553733  1305
STARLINK-3936           
1 52674U 22053U   22167.08334491 -.00692233  00000+0 -10834-1 0  9999
2 52674  53.2170 156.8474 0001476  54.0774 120.0336 15.55535268  1308
STARLINK-3934           
1 52675U 22053V   22167.08334491 -.00030257  00000+0 -21140-3 0  9996
2 52675  53.2145 156.0407 0002581  22.5537 162.7909 15.73253286  1300
STARLINK-4006           
1 52676U 22053W   22167.08334491 -.00695613  00000+0 -10885-1 0  9992
2 52676  53.2170 156.8757 0001473  56.1851 120.2730 15.55551577  1301
STARLINK-4028           
1 52677U 22053X   22167.08334491 -.00032597  00000+0 -22804-3 0  9995
2 52677  53.2144 156.0385 0002505  18.9584 167.5444 15.73265282  1309
STARLINK-4074           
1 52678U 22053Y   22167.08334491  .00017851  00000+0  13103-3 0  9992
2 52678  53.2146 156.0430 0002647  16.7251 167.9181 15.73253580  1307
STARLINK-4031           
1 52679U 22053Z   22167.08334491  .00029546  00000+0  21380-3 0  9993
2 52679  53.2160 156.0361 0002502  19.4568 168.8336 15.73241841  1307
STARLINK-3774           
1 52680U 22053AA  22167.08334491 -.00054996  00000+0 -38879-3 0  9995
2 52680  53.2143 156.0395 0002528  21.2530 164.6374 15.73266987  1309
STARLINK-4068           
1 52681U 22053AB  22167.08334491  .00019990  00000+0  14616-3 0  9992
2 52681  53.2144 156.0326 0002965  10.4907 178.3345 15.73253823  1303
STARLINK-4017           
1 52682U 22053AC  22167.08334491 -.00062615  00000+0 -44367-3 0  9993
2 52682  53.2146 156.0377 0002682  24.0349 163.0563 15.73266073  1303
STARLINK-4039           
1 52683U 22053AD  22167.08334491  .00022420  00000+0  16335-3 0  9996
2 52683  53.2144 156.0303 0002469  15.6032 174.4069 15.73253981  1300
STARLINK-4014           
1 52684U 22053AE  22167.08334491 -.00007637  00000+0 -49907-4 0  9994
2 52684  53.2144 156.0356 0002560  18.0468 169.6581 15.73251717  1301
STARLINK-4029           
1 52685U 22053AF  22167.08334491 -.00038774  00000+0 -27242-3 0  9998
2 52685  53.2162 156.0269 0002400  22.4628 169.3916 15.73254861  1307
STARLINK-4005           
1 52686U 22053AG  22167.08334491 -.00034491  00000+0 -24176-3 0  9994
2 52686  53.2145 156.0321 0002522  19.0173 170.4336 15.73250417  1302
STARLINK-3981           
1 52687U 22053AH  22167.08334491 -.00034525  00000+0 -24204-3 0  9995
2 52687  53.2145 156.0251 0002562  19.6848 172.7672 15.73246480  1307
STARLINK-4032           
1 52688U 22053AJ  22167.08334491  .00039569  00000+0  28474-3 0  9990
2 52688  53.2143 156.0294 0002354  19.1319 171.5464 15.73221401  1302
STARLINK-4078           
1 52689U 22053AK  22167.08334491 -.00014082  00000+0 -95761-4 0  9990
2 52689  53.2160 156.0234 0002445  24.4831 169.7077 15.73270661  1306
STARLINK-4035           
1 52690U 22053AL  22167.08334491  .00006112  00000+0  47874-4 0  9997
2 52690  53.2158 156.0301 0002429  18.1635 173.1113 15.73232581  1303
STARLINK-3945           
1 52691U 22053AM  22167.08334491 -.00008290  00000+0 -54561-4 0  9990
2 52691  53.2162 156.0224 0002625  25.5398 169.2850 15.73249428  1301
STARLINK-3993           
1 52692U 22053AN  22167.08334491  .00036177  00000+0  26051-3 0  9996
2 52692  53.2164 156.0270 0002432  13.3636 179.6294 15.73249001  1305
STARLINK-3946           
1 52693U 22053AP  22167.08334491 -.00034013  00000+0 -23828-3 0  9995
2 52693  53.2164 156.0201 0002615  25.9250 170.1181 15.73255048  1303
STARLINK-4072           
1 52694U 22053AQ  22167.08334491  .00007382  00000+0  56881-4 0  9999
2 52694  53.2162 156.0254 0002516  14.9623 178.7030 15.73240515  1302
STARLINK-4041           
1 52695U 22053AR  22167.08334491 -.00011905  00000+0 -80317-4 0  9999
2 52695  53.2162 156.0168 0002510  20.5069 176.7319 15.73251473  1301
STARLINK-4025           
1 52696U 22053AS  22167.08334491  .00037978  00000+0  27347-3 0  9999
2 52696  53.2163 156.0214 0002549  19.4085 176.0321 15.73225628  1301
STARLINK-4018           
1 52697U 22053AT  22167.08334491 -.00078165  00000+0 -55546-3 0  9997
2 52697  53.2165 156.0152 0002301  22.0284 176.3587 15.73289552  1305
STARLINK-4030           
1 52698U 22053AU  22167.08334491  .00024037  00000+0  17496-3 0  9997
2 52698  53.2145 156.0163 0002213  18.2497 178.4000 15.73230520  1305
STARLINK-3987           
1 52699U 22053AV  22167.08334491 -.00012286  00000+0 -83000-4 0  9998
2 52699  53.2165 156.0125 0002336  21.9206 177.6812 15.73262055  1301
STARLINK-4034           
1 52700U 22053AW  22167.08334491  .00010895  00000+0  81794-4 0  9991
2 52700  53.2161 156.0163 0002307  14.5891 183.2558 15.73244286  1304
STARLINK-4003           
1 52701U 22053AX  22167.08334491  .00025995  00000+0  18882-3 0  9996
2 52701  53.2165 156.0098 0002573  20.8627 179.9509 15.73228663  1307
STARLINK-4033           
1 52702U 22053AY  22167.08334491 -.00081047  00000+0 -57647-3 0  9991
2 52702  53.2163 156.0136 0002659  13.9533 185.0947 15.73281027  1300
STARLINK-4020           
1 52703U 22053AZ  22167.08334491 -.00047840  00000+0 -33730-3 0  9992
2 52703  53.2161 156.0062 0002443  29.2188 173.3690 15.73269879  1300
STARLINK-3999           
1 52704U 22053BA  22167.08334491 -.00013360  00000+0 -90712-4 0  9997
2 52704  53.2166 156.0116 0001868  33.4807 166.7447 15.73250408  1305
STARLINK-3844           
1 52705U 22053BB  22167.08334491  .00030450  00000+0  22005-3 0  9994
2 52705  53.2160 156.0065 0002147  20.6634 181.2581 15.73256488  1305
STARLINK-3970           
1 52706U 22053BC  22167.08334491 -.00074340  00000+0 -52794-3 0  9991
2 52706  53.2162 156.0084 0001994  19.2943 182.0609 15.73285548  1304
STARLINK-4007           
1 52707U 22053BD  22167.08334491 -.00048058  00000+0 -33888-3 0  9992
2 52707  53.2162 156.0041 0002516  13.1485 190.0655 15.73268404  1305
STARLINK-3962           
1 52708U 22053BE  22167.08334491  .00266749  00000+0  18620-2 0  9996
2 52708  53.2165 156.0054 0002552  20.1610 183.0310 15.72988095  1305
FALCON 9 DEB            
1 52709U 22053BF  22167.00690310  .00321535  53833-4  66252-3 0  9991
2 52709  53.2027 152.9117 0012048  24.3942 335.7656 15.98635058  5672
FALCON 9 DEB            
1 52710U 22053BG  22166.99488809  .00385106  74100-4  73697-3 0  9993
2 52710  53.2025 152.8322 0012479  33.2167 326.9646 15.99895286  5678
FALCON 9 DEB            
1 52711U 22053BH  22166.96669672  .00505702  12722-3  81660-3 0  9996
2 52711  53.2007 152.6489 0008278  41.3976 318.7683 16.02865458  5674
FALCON 9 DEB            
1 52712U 22053BJ  22166.95617045  .00554257  15475-3  83025-3 0  9997
2 52712  53.2056 152.5873 0009525  44.7286 315.4514 16.04088225  5670
COSMOS 2556             
1 52713U 22054A   22167.03122798  .00000601  00000+0  55114-4 0  9997
2 52713  97.6941  81.1916 0011935 183.3380 176.7781 14.98475118  4163
SL-4 R/B                
1 52714U 22054B   22167.01694117  .00028166  00000+0  44840-3 0  9994
2 52714  97.7020  82.8981 0148683 336.6461 152.4622 15.41570438  4263
